[{"OBJECT_NAME":"STARLINK-11433 [DTC]","OBJECT_ID":"2024-213A","EPOCH":"2026-02-18T12:00:56.541024","MEAN_MOTION":15.69725877,"ECCENTRICITY":0.00011515,"INCLINATION":53.1576,"RA_OF_ASC_NODE":135.6879,"ARG_OF_PERICENTER":64.148,"MEAN_ANOMALY":295.9656,"EPHEMERIS_TYPE":0,"CLASSIFICATION_TYPE":"U","NORAD_CAT_ID":62008,"ELEMENT_SET_NO":999,"REV_AT_EPOCH":7190,"BSTAR":0.0014841424,"MEAN_MOTION_DOT":0.00183361,"MEAN_MOTION_DDOT":0},{"OBJECT_NAME":"STARLINK-11262 [DTC]","OBJECT_ID":"2024-213B","EPOCH":"2026-02-18T17:32:30.388128","MEAN_MOTION":15.69764706,"ECCENTRICITY":0.0001927,"INCLINATION":53.1574,"RA_OF_ASC_NODE":135.0112,"ARG_OF_PERICENTER":46.9046,"MEAN_ANOMALY":313.2133,"EPHEMERIS_TYPE":0,"CLASSIFICATION_TYPE":"U","NORAD_CAT_ID":62009,"ELEMENT_SET_NO":999,"REV_AT_EPOCH":7193,"BSTAR":0.0012666,"MEAN_MOTION_DOT":0.00156136,"MEAN_MOTION_DDOT":0},{"OBJECT_NAME":"STARLINK-11326 [DTC]","OBJECT_ID":"2024-213C","EPOCH":"2026-02-18T17:04:13.188864","MEAN_MOTION":15.6970961,"ECCENTRICITY":9.87e-5,"INCLINATION":53.1567,"RA_OF_ASC_NODE":134.8739,"ARG_OF_PERICENTER":51.0244,"MEAN_ANOMALY":309.0862,"EPHEMERIS_TYPE":0,"CLASSIFICATION_TYPE":"U","NORAD_CAT_ID":62010,"ELEMENT_SET_NO":999,"REV_AT_EPOCH":7193,"BSTAR":0.0003181,"MEAN_MOTION_DOT":0.00038125,"MEAN_MOTION_DDOT":0},{"OBJECT_NAME":"STARLINK-11330 [DTC]","OBJECT_ID":"2024-213D","EPOCH":"2026-02-18T17:25:26.139936","MEAN_MOTION":15.69787941,"ECCENTRICITY":8.89e-5,"INCLINATION":53.1572,"RA_OF_ASC_NODE":134.9744,"ARG_OF_PERICENTER":74.8157,"MEAN_ANOMALY":285.2959,"EPHEMERIS_TYPE":0,"CLASSIFICATION_TYPE":"U","NORAD_CAT_ID":62011,"ELEMENT_SET_NO":999,"REV_AT_EPOCH":7193,"BSTAR":0.001481,"MEAN_MOTION_DOT":0.00183447,"MEAN_MOTION_DDOT":0},{"OBJECT_NAME":"STARLINK-11363 [DTC]","OBJECT_ID":"2024-213E","EPOCH":"2026-02-18T13:46:45.061824","MEAN_MOTION":15.69739573,"ECCENTRICITY":0.0001625,"INCLINATION":53.1577,"RA_OF_ASC_NODE":135.4411,"ARG_OF_PERICENTER":127.1609,"MEAN_ANOMALY":232.9558,"EPHEMERIS_TYPE":0,"CLASSIFICATION_TYPE":"U","NORAD_CAT_ID":62012,"ELEMENT_SET_NO":999,"REV_AT_EPOCH":7191,"BSTAR":0.0015808,"MEAN_MOTION_DOT":0.00195754,"MEAN_MOTION_DDOT":0},{"OBJECT_NAME":"STARLINK-11377 [DTC]","OBJECT_ID":"2024-213F","EPOCH":"2026-02-18T19:46:25.852512","MEAN_MOTION":15.69777249,"ECCENTRICITY":0.0002252,"INCLINATION":53.1572,"RA_OF_ASC_NODE":134.1576,"ARG_OF_PERICENTER":40.8491,"MEAN_ANOMALY":319.2695,"EPHEMERIS_TYPE":0,"CLASSIFICATION_TYPE":"U","NORAD_CAT_ID":62013,"ELEMENT_SET_NO":999,"REV_AT_EPOCH":7195,"BSTAR":0.0017421,"MEAN_MOTION_DOT":0.00216671,"MEAN_MOTION_DDOT":0},{"OBJECT_NAME":"STARLINK-11385 [DTC]","OBJECT_ID":"2024-213G","EPOCH":"2026-02-18T15:46:41.259936","MEAN_MOTION":15.697604,"ECCENTRICITY":0.0001259,"INCLINATION":53.1576,"RA_OF_ASC_NODE":135.2568,"ARG_OF_PERICENTER":132.4971,"MEAN_ANOMALY":227.6153,"EPHEMERIS_TYPE":0,"CLASSIFICATION_TYPE":"U","NORAD_CAT_ID":62014,"ELEMENT_SET_NO":999,"REV_AT_EPOCH":7192,"BSTAR":0.0010187,"MEAN_MOTION_DOT":0.00124958,"MEAN_MOTION_DDOT":0},{"OBJECT_NAME":"STARLINK-11396 [DTC]","OBJECT_ID":"2024-213H","EPOCH":"2026-02-18T13:25:33.911328","MEAN_MOTION":15.69721689,"ECCENTRICITY":0.0001485,"INCLINATION":53.1575,"RA_OF_ASC_NODE":135.3444,"ARG_OF_PERICENTER":107.4945,"MEAN_ANOMALY":252.6236,"EPHEMERIS_TYPE":0,"CLASSIFICATION_TYPE":"U","NORAD_CAT_ID":62015,"ELEMENT_SET_NO":999,"REV_AT_EPOCH":7191,"BSTAR":0.0016135,"MEAN_MOTION_DOT":0.00199755,"MEAN_MOTION_DDOT":0},{"OBJECT_NAME":"STARLINK-11393 [DTC]","OBJECT_ID":"2024-213J","EPOCH":"2026-02-18T13:18:30.039840","MEAN_MOTION":15.69715135,"ECCENTRICITY":0.0001339,"INCLINATION":53.1568,"RA_OF_ASC_NODE":135.3098,"ARG_OF_PERICENTER":53.1042,"MEAN_ANOMALY":307.0098,"EPHEMERIS_TYPE":0,"CLASSIFICATION_TYPE":"U","NORAD_CAT_ID":62016,"ELEMENT_SET_NO":999,"REV_AT_EPOCH":7191,"BSTAR":0.0016159,"MEAN_MOTION_DOT":0.00200002,"MEAN_MOTION_DDOT":0},{"OBJECT_NAME":"STARLINK-11343 [DTC]","OBJECT_ID":"2024-213K","EPOCH":"2026-02-18T14:07:56.410176","MEAN_MOTION":15.69772203,"ECCENTRICITY":0.000181,"INCLINATION":53.1566,"RA_OF_ASC_NODE":135.5393,"ARG_OF_PERICENTER":142.0741,"MEAN_ANOMALY":218.0405,"EPHEMERIS_TYPE":0,"CLASSIFICATION_TYPE":"U","NORAD_CAT_ID":62017,"ELEMENT_SET_NO":999,"REV_AT_EPOCH":7191,"BSTAR":0.0012764,"MEAN_MOTION_DOT":0.00157416,"MEAN_MOTION_DDOT":0},{"OBJECT_NAME":"STARLINK-11411 [DTC]","OBJECT_ID":"2024-213L","EPOCH":"2026-02-18T15:25:29.900352","MEAN_MOTION":15.69759236,"ECCENTRICITY":0.0001022,"INCLINATION":53.1578,"RA_OF_ASC_NODE":135.1604,"ARG_OF_PERICENTER":120.7628,"MEAN_ANOMALY":239.3491,"EPHEMERIS_TYPE":0,"CLASSIFICATION_TYPE":"U","NORAD_CAT_ID":62018,"ELEMENT_SET_NO":999,"REV_AT_EPOCH":7192,"BSTAR":0.0011488,"MEAN_MOTION_DOT":0.00141272,"MEAN_MOTION_DDOT":0},{"OBJECT_NAME":"STARLINK-11404 [DTC]","OBJECT_ID":"2024-213M","EPOCH":"2026-02-18T20:42:56.268000","MEAN_MOTION":15.69751721,"ECCENTRICITY":0.0001499,"INCLINATION":53.1568,"RA_OF_ASC_NODE":134.4111,"ARG_OF_PERICENTER":64.0872,"MEAN_ANOMALY":296.0301,"EPHEMERIS_TYPE":0,"CLASSIFICATION_TYPE":"U","NORAD_CAT_ID":62019,"ELEMENT_SET_NO":999,"REV_AT_EPOCH":7195,"BSTAR":0.00091911,"MEAN_MOTION_DOT":0.00112476,"MEAN_MOTION_DDOT":0},{"OBJECT_NAME":"STARLINK-11378 [DTC]","OBJECT_ID":"2024-213N","EPOCH":"2026-02-18T16:14:48.072192","MEAN_MOTION":15.69766075,"ECCENTRICITY":9.19e-5,"INCLINATION":53.1578,"RA_OF_ASC_NODE":134.6456,"ARG_OF_PERICENTER":40.242,"MEAN_ANOMALY":319.8666,"EPHEMERIS_TYPE":0,"CLASSIFICATION_TYPE":"U","NORAD_CAT_ID":62020,"ELEMENT_SET_NO":999,"REV_AT_EPOCH":7193,"BSTAR":0.0011916,"MEAN_MOTION_DOT":0.00146689,"MEAN_MOTION_DDOT":0},{"OBJECT_NAME":"STARLINK-32520","OBJECT_ID":"2024-213P","EPOCH":"2026-02-18T20:02:35.668320","MEAN_MOTION":15.30196421,"ECCENTRICITY":0.000105,"INCLINATION":53.1587,"RA_OF_ASC_NODE":256.0195,"ARG_OF_PERICENTER":57.9204,"MEAN_ANOMALY":302.1899,"EPHEMERIS_TYPE":0,"CLASSIFICATION_TYPE":"U","NORAD_CAT_ID":62021,"ELEMENT_SET_NO":999,"REV_AT_EPOCH":7026,"BSTAR":0.00081924,"MEAN_MOTION_DOT":0.0002398,"MEAN_MOTION_DDOT":0},{"OBJECT_NAME":"STARLINK-32539","OBJECT_ID":"2024-213Q","EPOCH":"2026-02-18T20:19:59.286144","MEAN_MOTION":15.3019438,"ECCENTRICITY":0.0001117,"INCLINATION":53.1573,"RA_OF_ASC_NODE":243.1316,"ARG_OF_PERICENTER":97.1971,"MEAN_ANOMALY":262.9156,"EPHEMERIS_TYPE":0,"CLASSIFICATION_TYPE":"U","NORAD_CAT_ID":62022,"ELEMENT_SET_NO":999,"REV_AT_EPOCH":7044,"BSTAR":0.0005077,"MEAN_MOTION_DOT":0.00014705,"MEAN_MOTION_DDOT":0},{"OBJECT_NAME":"STARLINK-32334","OBJECT_ID":"2024-213R","EPOCH":"2026-02-17T22:19:13.905120","MEAN_MOTION":15.2896795,"ECCENTRICITY":0.0005007,"INCLINATION":53.1578,"RA_OF_ASC_NODE":259.6121,"ARG_OF_PERICENTER":109.1639,"MEAN_ANOMALY":250.9903,"EPHEMERIS_TYPE":0,"CLASSIFICATION_TYPE":"U","NORAD_CAT_ID":62023,"ELEMENT_SET_NO":999,"REV_AT_EPOCH":7013,"BSTAR":-0.032936,"MEAN_MOTION_DOT":-0.00865313,"MEAN_MOTION_DDOT":0}]
