STARLINK-11433 [DTC]    
1 62008U 24213A   26049.50065441  .00183361  00000+0  14841-2 0  9995
2 62008  53.1576 135.6879 0001151  64.1480 295.9656 15.69725877 71901
STARLINK-11262 [DTC]    
1 62009U 24213B   26049.73090727  .00156136  00000+0  12666-2 0  9999
2 62009  53.1574 135.0112 0001927  46.9046 313.2133 15.69764706 71932
STARLINK-11326 [DTC]    
1 62010U 24213C   26049.71126376  .00038125  00000+0  31810-3 0  9999
2 62010  53.1567 134.8739 0000987  51.0244 309.0862 15.69709610 71935
STARLINK-11330 [DTC]    
1 62011U 24213D   26049.72599699  .00183447  00000+0  14810-2 0  9991
2 62011  53.1572 134.9744 0000889  74.8157 285.2959 15.69787941 71931
STARLINK-11363 [DTC]    
1 62012U 24213E   26049.57413266  .00195754  00000+0  15808-2 0  9992
2 62012  53.1577 135.4411 0001625 127.1609 232.9558 15.69739573 71917
STARLINK-11377 [DTC]    
1 62013U 24213F   26049.82391033  .00216671  00000+0  17421-2 0  9993
2 62013  53.1572 134.1576 0002252  40.8491 319.2695 15.69777249 71955
STARLINK-11385 [DTC]    
1 62014U 24213G   26049.65742199  .00124958  00000+0  10187-2 0  9996
2 62014  53.1576 135.2568 0001259 132.4971 227.6153 15.69760400 71929
STARLINK-11396 [DTC]    
1 62015U 24213H   26049.55942027  .00199755  00000+0  16135-2 0  9994
2 62015  53.1575 135.3444 0001485 107.4945 252.6236 15.69721689 71912
STARLINK-11393 [DTC]    
1 62016U 24213J   26049.55451435  .00200002  00000+0  16159-2 0  9997
2 62016  53.1568 135.3098 0001339  53.1042 307.0098 15.69715135 71913
STARLINK-11343 [DTC]    
1 62017U 24213K   26049.58884734  .00157416  00000+0  12764-2 0  9991
2 62017  53.1566 135.5393 0001810 142.0741 218.0405 15.69772203 71912
STARLINK-11411 [DTC]    
1 62018U 24213L   26049.64270718  .00141272  00000+0  11488-2 0  9995
2 62018  53.1578 135.1604 0001022 120.7628 239.3491 15.69759236 71922
STARLINK-11404 [DTC]    
1 62019U 24213M   26049.86315125  .00112476  00000+0  91911-3 0  9996
2 62019  53.1568 134.4111 0001499  64.0872 296.0301 15.69751721 71950
STARLINK-11378 [DTC]    
1 62020U 24213N   26049.67694528  .00146689  00000+0  11916-2 0  9993
2 62020  53.1578 134.6456 0000919  40.2420 319.8666 15.69766075 71932
STARLINK-32520          
1 62021U 24213P   26049.83513505  .00023980  00000+0  81924-3 0  9992
2 62021  53.1587 256.0195 0001050  57.9204 302.1899 15.30196421 70262
STARLINK-32539          
1 62022U 24213Q   26049.84721396  .00014705  00000+0  50770-3 0  9993
2 62022  53.1573 243.1316 0001117  97.1971 262.9156 15.30194380 70442
STARLINK-32334          
1 62023U 24213R   26048.93002205 -.00865313  00000+0 -32936-1 0  9997
2 62023  53.1578 259.6121 0005007 109.1639 250.9903 15.28967950 70132
